     2.11           N: GPS NAV DATA                         RINEX VERSION / TYPE
teqc  2019Feb25                         20221121 12:25:35UTCPGM / RUN BY / DATE
OSX ker:10.11.6|Core i5|gcc 4.3 -m64|OSX ker:10.10+|=+      COMMENT
    4.6566D-09  1.4901D-08 -5.9605D-08 -5.9605D-08          ION ALPHA
    7.9872D+04  6.5536D+04 -6.5536D+04 -3.9322D+05          ION BETA
    3.725290298462D-09 1.243449787580D-14   147456     1542 DELTA-UTC: A0,A1,T,W
                                                            END OF HEADER
19 09  7 25 23 59 44.0 1.769047230482D-05-1.477928890381D-12 0.000000000000D+00
    1.000000000000D+01-9.562500000000D+00 4.584119518407D-09 2.770186881426D+00
   -4.060566425323D-07 5.775459459983D-03 1.229904592037D-05 5.153639209747D+03
    6.047840000000D+05-1.136213541031D-07-2.375032547742D+00 1.452863216400D-07
    9.576522468143D-01 1.411250000000D+02-3.142305595012D-01-7.874970881289D-09
    1.142904749427D-11 1.000000000000D+00 1.541000000000D+03 0.000000000000D+00
    2.000000000000D+00 0.000000000000D+00-1.443549990654D-08 1.000000000000D+01
    5.976180000000D+05 4.000000000000D+00
